{"type": "FeatureCollection", "features": [{"id": "0", "type": "Feature", "properties": {"TOT_OA_CD": "23080790100003", "population": 452, "employment": 812.0, "area_ratio": 0.8097933362828071, "weighted_population": 366.02658799982885, "weighted_employment": 657.5521890616394}, "geometry": {"type": "MultiPolygon", "coordinates": [[[[126.63082898160263, 37.53417027848612], [126.63077556753842, 37.53417024225363], [126.63079603398914, 37.53355788745616], [126.62826608169483, 37.533569623921984], [126.62826307275755, 37.5341686194922], [126.62755317028065, 37.53416815017007], [126.62754605133199, 37.533154227918914], [126.62753300595482, 37.53315415626518], [126.62684852710288, 37.53310695082712], [126.6268524608894, 37.53403532444238], [126.62592802106066, 37.53403925822889], [126.62593195484715, 37.534515246396026], [126.62604210086928, 37.53537281185419], [126.62627703741617, 37.536253823905], [126.62701302394231, 37.53621342328142], [126.62720890472373, 37.536185840157046], [126.62776079091992, 37.53612240174641], [126.62817196195022, 37.536075137433244], [126.62882986125528, 37.536052439159455], [126.62957819129107, 37.536026616424316], [126.62994971497771, 37.53602446828529], [126.63051352751218, 37.53602120612372], [126.63171855479645, 37.53595501225695], [126.63169495207744, 37.53584486623481], [126.63186017111065, 37.535569501179445], [126.6318509700086, 37.534170924536014], [126.63082898160263, 37.53417027848612]]], [[[126.62754625197981, 37.532462773520685], [126.62754646430872, 37.53214132584751], [126.62755135889931, 37.531722328865754], [126.62826241393671, 37.531726505633735], [126.6282735221083, 37.53232600399821], [126.63078208415328, 37.53233953638658], [126.63079203344779, 37.53175787103202], [126.63079117067942, 37.53174132519601], [126.63083358741193, 37.53174157338026], [126.63169894273736, 37.53174663161498], [126.63189011819502, 37.53174774829306], [126.63193097926774, 37.530062200071995], [126.62906718269186, 37.530062200071995], [126.62629779699215, 37.5296216159834], [126.62590441834162, 37.53176159584228], [126.62684852710288, 37.531714390404225], [126.62681705681084, 37.532705704603565], [126.62680132166481, 37.53272143974959], [126.62754608707036, 37.53271220164538], [126.62754625197981, 37.532462773520685]]], [[[126.61911470283344, 37.52940919151211], [126.61867411874488, 37.531769463415294], [126.62079836345772, 37.531769463415294], [126.62067248228956, 37.53268210188453], [126.62544041467685, 37.53265073390829], [126.62547956939905, 37.53099057368727], [126.62581787503849, 37.52955867539932], [126.62400833324605, 37.52926757519792], [126.61961822750615, 37.528150379830414], [126.61911470283344, 37.52940919151211]]], [[[126.62544041467685, 37.53265073390829], [126.625440231534, 37.53265849916551], [126.62545596668001, 37.53265063159249], [126.62544041467685, 37.53265073390829]]], [[[126.62065674714353, 37.534051059588386], [126.61856397272271, 37.534043192015375], [126.61888654321615, 37.53687551829921], [126.61911470283344, 37.537929773082624], [126.6257549344544, 37.536222509739325], [126.62576280202742, 37.536230377312314], [126.62547956939903, 37.535113181944816], [126.625448099107, 37.533099083254086], [126.62067248228956, 37.533154156265184], [126.62065674714353, 37.534051059588386]]], [[[126.62627812805961, 37.53625791381788], [126.62627703741617, 37.536253823905], [126.6262741942731, 37.536253980031354], [126.62627812805961, 37.53625791381788]]]]}}, {"id": "1", "type": "Feature", "properties": {"TOT_OA_CD": "23080790100005", "population": 875, "employment": 327.0, "area_ratio": 0.6372598958288035, "weighted_population": 557.602408850203, "weighted_employment": 208.38398593601875}, "geometry": {"type": "Polygon", "coordinates": [[[126.63169894271991, 37.53174663161775], [126.63083358741166, 37.531741573386405], [126.6307911706487, 37.53174132517519], [126.6307920334524, 37.53175787101971], [126.63078208416252, 37.53233953636857], [126.62827352210029, 37.5323260040017], [126.6282624139238, 37.53172650564198], [126.62755135888267, 37.531722328859], [126.6275464643104, 37.53214132584788], [126.62754625198767, 37.532462773520166], [126.62754608707795, 37.532712201645275], [126.63186803868365, 37.5326584991655], [126.63189011819517, 37.53174774828677], [126.63169894271991, 37.53174663161775]]]}}, {"id": "2", "type": "Feature", "properties": {"TOT_OA_CD": "23080790100009", "population": 1180, "employment": 751.0, "area_ratio": 0.6805876792832743, "weighted_population": 803.0934615542637, "weighted_employment": 511.121347141739}, "geometry": {"type": "Polygon", "coordinates": [[[126.62826608167458, 37.533569623902565], [126.63079603396352, 37.533557887441745], [126.6307755675315, 37.53417024225234], [126.63082898160343, 37.53417027848824], [126.63185097000857, 37.53417092453107], [126.63184443596461, 37.5331777589842], [126.62754605130787, 37.53315422791878], [126.6275531702881, 37.53416815017003], [126.62826307272987, 37.53416861947602], [126.62826608167458, 37.533569623902565]]]}}, {"id": "3", "type": "Feature", "properties": {"TOT_OA_CD": "23080790100202", "population": 434, "employment": 12.0, "area_ratio": 0.014972591875391562, "weighted_population": 6.498104873919938, "weighted_employment": 0.17967110250469875}, "geometry": {"type": "Polygon", "coordinates": [[[126.62776079091992, 37.53612240174641], [126.62720890472373, 37.536185840157046], [126.62701302394231, 37.53621342328142], [126.62777280800674, 37.536171711472115], [126.62776079091992, 37.53612240174641]]]}}, {"id": "4", "type": "Feature", "properties": {"TOT_OA_CD": "23080790100301", "population": 582, "employment": 13.0, "area_ratio": 0.004859429660827382, "weighted_population": 2.8281880626015363, "weighted_employment": 0.06317258559075596}, "geometry": {"type": "Polygon", "coordinates": [[[126.62994971497771, 37.53602446828529], [126.62994939219139, 37.53605219060984], [126.63051352751218, 37.53602120612372], [126.62994971497771, 37.53602446828529]]]}}, {"id": "5", "type": "Feature", "properties": {"TOT_OA_CD": "23080790100307", "population": 662, "employment": 16.0, "area_ratio": 0.06351957963038735, "weighted_population": 42.04996171531642, "weighted_employment": 1.0163132740861975}, "geometry": {"type": "Polygon", "coordinates": [[[126.62994971497771, 37.53602446828529], [126.62957819129107, 37.536026616424316], [126.62882986125528, 37.536052439159455], [126.62817196195022, 37.536075137433244], [126.62776079091992, 37.53612240174641], [126.62777280800674, 37.536171711472115], [126.62994939219139, 37.53605219060984], [126.62994971497771, 37.53602446828529]]]}}]}