{"type": "FeatureCollection", "features": [{"id": "0", "type": "Feature", "properties": {"fid": 1, "name": "cheongna_ibd_boundary", "source": "official plan map", "note": "part 1", "region": "cheongna"}, "geometry": {"type": "MultiPolygon", "coordinates": [[[[126.61961822750614, 37.528150379830414], [126.61911470283346, 37.52940919151211], [126.61867411874486, 37.531769463415294], [126.62079836345772, 37.531769463415294], [126.62067248228955, 37.53268210188453], [126.62544041467685, 37.5326507339083], [126.62547956939905, 37.530990573687255], [126.62581787503849, 37.52955867539932], [126.62400833324605, 37.52926757519792], [126.61961822750614, 37.528150379830414]]], [[[126.63193097926774, 37.530062200071995], [126.62906718269187, 37.530062200071995], [126.62629779699213, 37.5296216159834], [126.6259044183416, 37.53176159584229], [126.62684852710288, 37.531714390404225], [126.62681705681084, 37.532705704603565], [126.62680132166481, 37.53272143974959], [126.63186803868365, 37.5326584991655], [126.63193097926774, 37.530062200071995]]], [[[126.62545596668001, 37.53265063159249], [126.62544041467685, 37.5326507339083], [126.62544023153399, 37.53265849916551], [126.62545596668001, 37.53265063159249]]], [[[126.63184443596461, 37.5331777589842], [126.6275330059548, 37.53315415626518], [126.62684852710288, 37.53310695082711], [126.6268524608894, 37.53403532444237], [126.62592802106064, 37.53403925822888], [126.62593195484715, 37.53451524639602], [126.62604210086928, 37.53537281185419], [126.62627703741617, 37.536253823905], [126.63171855479645, 37.53595501225695], [126.63169495207742, 37.53584486623481], [126.63186017111065, 37.53556950117944], [126.63184443596461, 37.5331777589842]]], [[[126.62067248228955, 37.53315415626518], [126.62065674714353, 37.534051059588386], [126.6185639727227, 37.534043192015375], [126.61888654321615, 37.536875518299205], [126.61911470283346, 37.537929773082624], [126.6257549344544, 37.536222509739325], [126.62576280202741, 37.53623037731232], [126.62547956939903, 37.535113181944816], [126.62544809910699, 37.53309908325409], [126.62067248228955, 37.53315415626518]]], [[[126.62627419427311, 37.536253980031354], [126.62627812805961, 37.53625791381788], [126.62627703741617, 37.536253823905], [126.62627419427311, 37.536253980031354]]]]}}]}