{"type": "FeatureCollection", "features": [{"id": "0", "type": "Feature", "properties": {"fid": 1, "name": "pangyo_boundary", "source": "manual digitizing from official plan", "note": "part 1", "region": "pangyo"}, "geometry": {"type": "MultiPolygon", "coordinates": [[[[127.09872932941016, 37.40650589972685], [127.09937447039707, 37.406411488850715], [127.10311943515032, 37.40431871442978], [127.10362295982303, 37.40389386548718], [127.10395339788948, 37.40304416760198], [127.10568426395191, 37.399786992375404], [127.10145150967196, 37.399786992375404], [127.10119581354913, 37.40000335063321], [127.10051133469716, 37.4011992217309], [127.09742724607683, 37.40414169403704], [127.09720695403252, 37.40448786724952], [127.09723842432456, 37.40529035969665], [127.09783635987341, 37.40626593875002], [127.0986860577586, 37.40651770108637], [127.09872932941016, 37.40650589972685]]], [[[127.10079358387917, 37.40710580216882], [127.10431038901494, 37.407137272460865], [127.10392487793742, 37.40650786662001], [127.10391701036441, 37.40617742855357], [127.10378326162322, 37.40560309572379], [127.10497913272084, 37.40486354386079], [127.10534104107933, 37.40507596833208], [127.10607272536932, 37.40535133338745], [127.106584117615, 37.405131041343154], [127.10667852849113, 37.4046589869625], [127.107323669478, 37.40440722462616], [127.10801601590293, 37.40451737064831], [127.10888144893411, 37.40462751667046], [127.10965247108915, 37.40516251163518], [127.11062805014247, 37.405256922511306], [127.11158789404976, 37.40566603630786], [127.1128309705854, 37.40304613449533], [127.11284670573143, 37.39985189985302], [127.10731580190495, 37.399883370145034], [127.1067650717942, 37.399741753830845], [127.10531743836023, 37.40312481022541], [127.10474310553046, 37.404100389278724], [127.10434972687993, 37.40454097336732], [127.10381473191521, 37.405075968332035], [127.1027762122778, 37.405673903880846], [127.10190291167363, 37.40605154738535], [127.1012971085518, 37.4063819854518], [127.1007778487331, 37.40709006702276], [127.10079358387917, 37.40710580216882]]]]}}]}