{"type": "FeatureCollection", "features": [{"id": "0", "type": "Feature", "properties": {"TOT_OA_CD": "31023740050001", "population": 109, "employment": 44995.0, "area_ratio": 0.6291826314681266, "weighted_population": 68.5809068300258, "weighted_employment": 28310.072502908355}, "geometry": {"type": "Polygon", "coordinates": [[[127.1127413902133, 37.40323494027488], [127.11283097058542, 37.40304613449533], [127.11284670573143, 37.399851899853026], [127.10731580190496, 37.39988337014504], [127.10676507179419, 37.399741753830845], [127.10531743836025, 37.40312481022541], [127.10526704506728, 37.403210410931514], [127.10646060734933, 37.40321419127664], [127.1064647753826, 37.403214205149375], [127.10647328894355, 37.40321423259118], [127.10667964994236, 37.40321488856657], [127.10926830704817, 37.403216820228664], [127.10968919340775, 37.40321949933814], [127.10969047012202, 37.40321951617187], [127.10972938999198, 37.403219760003466], [127.1121939547966, 37.40323545337918], [127.1127413902133, 37.40323494027488]]]}}, {"id": "1", "type": "Feature", "properties": {"TOT_OA_CD": "31023740060001", "population": 314, "employment": 9078.0, "area_ratio": 0.34707552788478435, "weighted_population": 108.9817157558223, "weighted_employment": 3150.7516421380724}, "geometry": {"type": "Polygon", "coordinates": [[[127.1121939547966, 37.40323545337918], [127.10972938999198, 37.403219760003466], [127.10969047012202, 37.40321951617187], [127.10968919340775, 37.40321949933814], [127.10926830704817, 37.403216820228664], [127.10667964994236, 37.40321488856657], [127.10647328894355, 37.40321423259118], [127.1064647753826, 37.403214205149375], [127.10646060734933, 37.40321419127664], [127.10526704506728, 37.403210410931514], [127.10474310553046, 37.404100389278724], [127.10434972687992, 37.40454097336732], [127.10381473191522, 37.405075968332035], [127.10277621227779, 37.40567390388084], [127.10190291167363, 37.40605154738535], [127.10129710855182, 37.40638198545181], [127.1007778487331, 37.40709006702276], [127.10079358387917, 37.40710580216883], [127.10431038901494, 37.40713727246086], [127.10392487793742, 37.40650786662002], [127.10391701036441, 37.40617742855357], [127.10378326162322, 37.40560309572379], [127.10497913272083, 37.404863543860785], [127.10534104107934, 37.40507596833208], [127.1060727253693, 37.40535133338745], [127.10658411761501, 37.405131041343154], [127.10667852849114, 37.40465898696251], [127.10732366947802, 37.40440722462616], [127.10801601590292, 37.40451737064831], [127.10888144893411, 37.404627516670466], [127.10965247108916, 37.40516251163519], [127.11062805014245, 37.40525692251131], [127.11158789404978, 37.40566603630787], [127.1127413902133, 37.40323494027488], [127.1121939547966, 37.40323545337918]]]}}, {"id": "2", "type": "Feature", "properties": {"TOT_OA_CD": "31023740070001", "population": 197, "employment": 12920.0, "area_ratio": 0.45328650867219983, "weighted_population": 89.29744220842336, "weighted_employment": 5856.461692044822}, "geometry": {"type": "Polygon", "coordinates": [[[127.10311752612172, 37.403188134336816], [127.10257197691281, 37.403180069721635], [127.10255545206367, 37.403178407926475], [127.10253378671393, 37.40317623669983], [127.1025186610935, 37.403174718414434], [127.10251806256858, 37.40317465602272], [127.10223497916039, 37.4031462174797], [127.10187656458257, 37.4030953183379], [127.10128807736339, 37.40297635119022], [127.10083328675316, 37.40285299849705], [127.10026609707995, 37.40265293470173], [127.09972023002028, 37.40240591650165], [127.09959207179644, 37.40234245654787], [127.09958806004562, 37.40234046807368], [127.09957679100678, 37.40233489093897], [127.09955247021816, 37.40232284731865], [127.09940842433348, 37.40225152428826], [127.09742724607683, 37.404141694037044], [127.09720695403252, 37.40448786724952], [127.09723842432457, 37.40529035969664], [127.09783635987343, 37.40626593875002], [127.0986860577586, 37.40651770108637], [127.09872932941018, 37.40650589972685], [127.09937447039707, 37.406411488850715], [127.1031194351503, 37.40431871442977], [127.10362295982304, 37.40389386548718], [127.10389324936885, 37.40319883675114], [127.10311752612172, 37.403188134336816]]]}}, {"id": "3", "type": "Feature", "properties": {"TOT_OA_CD": "31023740080001", "population": 0, "employment": 18324.0, "area_ratio": 0.30837501072158574, "weighted_population": 0.0, "weighted_employment": 5650.663696462337}, "geometry": {"type": "Polygon", "coordinates": [[[127.09955247021816, 37.40232284731865], [127.09957679100678, 37.40233489093897], [127.09958806004562, 37.40234046807368], [127.09959207179644, 37.40234245654787], [127.09972023002028, 37.40240591650165], [127.10026609707995, 37.40265293470173], [127.10083328675316, 37.40285299849705], [127.10128807736339, 37.40297635119022], [127.10187656458257, 37.4030953183379], [127.10223497916039, 37.4031462174797], [127.10251806256858, 37.40317465602272], [127.1025186610935, 37.403174718414434], [127.10253378671393, 37.40317623669983], [127.10255545206367, 37.403178407926475], [127.10257197691281, 37.403180069721635], [127.10311752612172, 37.403188134336816], [127.10389324936885, 37.40319883675114], [127.1039533978895, 37.40304416760199], [127.1056842639519, 37.399786992375404], [127.10145150967197, 37.3997869923754], [127.10119581354913, 37.40000335063322], [127.10051133469716, 37.4011992217309], [127.09940842433348, 37.40225152428826], [127.09955247021816, 37.40232284731865]]]}}]}